<?xml version="1.0" encoding="UTF-8"?>
<kml xmlns="http://www.opengis.net/kml/2.2">
<Document>
<Style id="style_0">
<LineStyle><color>ff000000</color><width>1</width></LineStyle>
<PolyStyle><color>ff3c8dfd</color></PolyStyle>
</Style>
<Placemark>
<name>grid_cell</name>
<description>Probability: 12.14%</description>
<styleUrl>#style_0</styleUrl>
<Polygon><outerBoundaryIs><LinearRing><coordinates>
69.699999,22.45,0 69.799999,22.45,0 69.799999,22.55,0 69.699999,22.55,0 69.699999,22.45,0
</coordinates></LinearRing></outerBoundaryIs></Polygon>
</Placemark>
<Style id="style_1">
<LineStyle><color>ff000000</color><width>1</width></LineStyle>
<PolyStyle><color>ff2a4efc</color></PolyStyle>
</Style>
<Placemark>
<name>grid_cell</name>
<description>Probability: 23.0952%</description>
<styleUrl>#style_1</styleUrl>
<Polygon><outerBoundaryIs><LinearRing><coordinates>
69.799999,22.45,0 69.899999,22.45,0 69.899999,22.55,0 69.799999,22.55,0 69.799999,22.45,0
</coordinates></LinearRing></outerBoundaryIs></Polygon>
</Placemark>
<Style id="style_2">
<LineStyle><color>ff000000</color><width>1</width></LineStyle>
<PolyStyle><color>ff3c8dfd</color></PolyStyle>
</Style>
<Placemark>
<name>grid_cell</name>
<description>Probability: 13.8534%</description>
<styleUrl>#style_2</styleUrl>
<Polygon><outerBoundaryIs><LinearRing><coordinates>
69.699999,22.55,0 69.799999,22.55,0 69.799999,22.65,0 69.699999,22.65,0 69.699999,22.55,0
</coordinates></LinearRing></outerBoundaryIs></Polygon>
</Placemark>
<Style id="style_3">
<LineStyle><color>ff000000</color><width>1</width></LineStyle>
<PolyStyle><color>ff2a4efc</color></PolyStyle>
</Style>
<Placemark>
<name>grid_cell</name>
<description>Probability: 28.0897%</description>
<styleUrl>#style_3</styleUrl>
<Polygon><outerBoundaryIs><LinearRing><coordinates>
69.799999,22.55,0 69.899999,22.55,0 69.899999,22.65,0 69.799999,22.65,0 69.799999,22.55,0
</coordinates></LinearRing></outerBoundaryIs></Polygon>
</Placemark>
<Style id="style_4">
<LineStyle><color>ff000000</color><width>1</width></LineStyle>
<PolyStyle><color>ff4cb2fe</color></PolyStyle>
</Style>
<Placemark>
<name>grid_cell</name>
<description>Probability: 7.6559%</description>
<styleUrl>#style_4</styleUrl>
<Polygon><outerBoundaryIs><LinearRing><coordinates>
69.899999,22.55,0 69.999999,22.55,0 69.999999,22.65,0 69.899999,22.65,0 69.899999,22.55,0
</coordinates></LinearRing></outerBoundaryIs></Polygon>
</Placemark>
<Style id="style_5">
<LineStyle><color>ff000000</color><width>1</width></LineStyle>
<PolyStyle><color>ff76d9fe</color></PolyStyle>
</Style>
<Placemark>
<name>grid_cell</name>
<description>Probability: 3.7732%</description>
<styleUrl>#style_5</styleUrl>
<Polygon><outerBoundaryIs><LinearRing><coordinates>
69.799999,22.65,0 69.899999,22.65,0 69.899999,22.75,0 69.799999,22.75,0 69.799999,22.65,0
</coordinates></LinearRing></outerBoundaryIs></Polygon>
</Placemark>
<Style id="style_6">
<LineStyle><color>ff000000</color><width>1</width></LineStyle>
<PolyStyle><color>ff3c8dfd</color></PolyStyle>
</Style>
<Placemark>
<name>grid_cell</name>
<description>Probability: 12.139992708713088%</description>
<styleUrl>#style_6</styleUrl>
<Polygon><outerBoundaryIs><LinearRing><coordinates>
69.699999,22.45,0 69.799999,22.45,0 69.799999,22.55,0 69.699999,22.55,0 69.699999,22.45,0
</coordinates></LinearRing></outerBoundaryIs></Polygon>
</Placemark>
<Style id="style_7">
<LineStyle><color>ff000000</color><width>1</width></LineStyle>
<PolyStyle><color>ff2a4efc</color></PolyStyle>
</Style>
<Placemark>
<name>grid_cell</name>
<description>Probability: 23.09515129420343%</description>
<styleUrl>#style_7</styleUrl>
<Polygon><outerBoundaryIs><LinearRing><coordinates>
69.799999,22.45,0 69.899999,22.45,0 69.899999,22.55,0 69.799999,22.55,0 69.799999,22.45,0
</coordinates></LinearRing></outerBoundaryIs></Polygon>
</Placemark>
<Style id="style_8">
<LineStyle><color>ff000000</color><width>1</width></LineStyle>
<PolyStyle><color>ff76d9fe</color></PolyStyle>
</Style>
<Placemark>
<name>grid_cell</name>
<description>Probability: 3.007655851257747%</description>
<styleUrl>#style_8</styleUrl>
<Polygon><outerBoundaryIs><LinearRing><coordinates>
69.899999,22.45,0 69.999999,22.45,0 69.999999,22.55,0 69.899999,22.55,0 69.899999,22.45,0
</coordinates></LinearRing></outerBoundaryIs></Polygon>
</Placemark>
<Style id="style_9">
<LineStyle><color>ff000000</color><width>1</width></LineStyle>
<PolyStyle><color>ff76d9fe</color></PolyStyle>
</Style>
<Placemark>
<name>grid_cell</name>
<description>Probability: 2.005103900838498%</description>
<styleUrl>#style_9</styleUrl>
<Polygon><outerBoundaryIs><LinearRing><coordinates>
69.599999,22.55,0 69.699999,22.55,0 69.699999,22.65,0 69.599999,22.65,0 69.599999,22.55,0
</coordinates></LinearRing></outerBoundaryIs></Polygon>
</Placemark>
<Style id="style_10">
<LineStyle><color>ff000000</color><width>1</width></LineStyle>
<PolyStyle><color>ff3c8dfd</color></PolyStyle>
</Style>
<Placemark>
<name>grid_cell</name>
<description>Probability: 13.853445133065986%</description>
<styleUrl>#style_10</styleUrl>
<Polygon><outerBoundaryIs><LinearRing><coordinates>
69.699999,22.55,0 69.799999,22.55,0 69.799999,22.65,0 69.699999,22.65,0 69.699999,22.55,0
</coordinates></LinearRing></outerBoundaryIs></Polygon>
</Placemark>
<Style id="style_11">
<LineStyle><color>ff000000</color><width>1</width></LineStyle>
<PolyStyle><color>ff2a4efc</color></PolyStyle>
</Style>
<Placemark>
<name>grid_cell</name>
<description>Probability: 28.089682829019324%</description>
<styleUrl>#style_11</styleUrl>
<Polygon><outerBoundaryIs><LinearRing><coordinates>
69.799999,22.55,0 69.899999,22.55,0 69.899999,22.65,0 69.799999,22.65,0 69.799999,22.55,0
</coordinates></LinearRing></outerBoundaryIs></Polygon>
</Placemark>
<Style id="style_12">
<LineStyle><color>ff000000</color><width>1</width></LineStyle>
<PolyStyle><color>ff4cb2fe</color></PolyStyle>
</Style>
<Placemark>
<name>grid_cell</name>
<description>Probability: 7.655851257746993%</description>
<styleUrl>#style_12</styleUrl>
<Polygon><outerBoundaryIs><LinearRing><coordinates>
69.899999,22.55,0 69.999999,22.55,0 69.999999,22.65,0 69.899999,22.65,0 69.899999,22.55,0
</coordinates></LinearRing></outerBoundaryIs></Polygon>
</Placemark>
<Style id="style_13">
<LineStyle><color>ff000000</color><width>1</width></LineStyle>
<PolyStyle><color>ff76d9fe</color></PolyStyle>
</Style>
<Placemark>
<name>grid_cell</name>
<description>Probability: 2.4425811155668975%</description>
<styleUrl>#style_13</styleUrl>
<Polygon><outerBoundaryIs><LinearRing><coordinates>
69.699999,22.65,0 69.799999,22.65,0 69.799999,22.75,0 69.699999,22.75,0 69.699999,22.65,0
</coordinates></LinearRing></outerBoundaryIs></Polygon>
</Placemark>
<Style id="style_14">
<LineStyle><color>ff000000</color><width>1</width></LineStyle>
<PolyStyle><color>ff76d9fe</color></PolyStyle>
</Style>
<Placemark>
<name>grid_cell</name>
<description>Probability: 3.7732409770324464%</description>
<styleUrl>#style_14</styleUrl>
<Polygon><outerBoundaryIs><LinearRing><coordinates>
69.799999,22.65,0 69.899999,22.65,0 69.899999,22.75,0 69.799999,22.75,0 69.799999,22.65,0
</coordinates></LinearRing></outerBoundaryIs></Polygon>
</Placemark>
</Document></kml>