<?xml version="1.0" encoding="UTF-8"?>
<kml xmlns="http://www.opengis.net/kml/2.2">
<Document>
<Style id="style_0">
<LineStyle><color>ff000000</color><width>1</width></LineStyle>
<PolyStyle><color>ff4cb2fe</color></PolyStyle>
</Style>
<Placemark>
<name>grid_cell</name>
<description>Probability: 9.7709%</description>
<styleUrl>#style_0</styleUrl>
<Polygon><outerBoundaryIs><LinearRing><coordinates>
69.699999,22.45,0 69.799999,22.45,0 69.799999,22.55,0 69.699999,22.55,0 69.699999,22.45,0
</coordinates></LinearRing></outerBoundaryIs></Polygon>
</Placemark>
<Style id="style_1">
<LineStyle><color>ff000000</color><width>1</width></LineStyle>
<PolyStyle><color>ff3c8dfd</color></PolyStyle>
</Style>
<Placemark>
<name>grid_cell</name>
<description>Probability: 17.1159%</description>
<styleUrl>#style_1</styleUrl>
<Polygon><outerBoundaryIs><LinearRing><coordinates>
69.799999,22.45,0 69.899999,22.45,0 69.899999,22.55,0 69.799999,22.55,0 69.799999,22.45,0
</coordinates></LinearRing></outerBoundaryIs></Polygon>
</Placemark>
<Style id="style_2">
<LineStyle><color>ff000000</color><width>1</width></LineStyle>
<PolyStyle><color>ff3c8dfd</color></PolyStyle>
</Style>
<Placemark>
<name>grid_cell</name>
<description>Probability: 19.0701%</description>
<styleUrl>#style_2</styleUrl>
<Polygon><outerBoundaryIs><LinearRing><coordinates>
69.699999,22.55,0 69.799999,22.55,0 69.799999,22.65,0 69.699999,22.65,0 69.699999,22.55,0
</coordinates></LinearRing></outerBoundaryIs></Polygon>
</Placemark>
<Style id="style_3">
<LineStyle><color>ff000000</color><width>1</width></LineStyle>
<PolyStyle><color>ff1c1ae3</color></PolyStyle>
</Style>
<Placemark>
<name>grid_cell</name>
<description>Probability: 41.5094%</description>
<styleUrl>#style_3</styleUrl>
<Polygon><outerBoundaryIs><LinearRing><coordinates>
69.799999,22.55,0 69.899999,22.55,0 69.899999,22.65,0 69.799999,22.65,0 69.799999,22.55,0
</coordinates></LinearRing></outerBoundaryIs></Polygon>
</Placemark>
<Style id="style_4">
<LineStyle><color>ff000000</color><width>1</width></LineStyle>
<PolyStyle><color>ff4cb2fe</color></PolyStyle>
</Style>
<Placemark>
<name>grid_cell</name>
<description>Probability: 5.4582%</description>
<styleUrl>#style_4</styleUrl>
<Polygon><outerBoundaryIs><LinearRing><coordinates>
69.899999,22.55,0 69.999999,22.55,0 69.999999,22.65,0 69.899999,22.65,0 69.899999,22.55,0
</coordinates></LinearRing></outerBoundaryIs></Polygon>
</Placemark>
<Style id="style_5">
<LineStyle><color>ff000000</color><width>1</width></LineStyle>
<PolyStyle><color>ff4cb2fe</color></PolyStyle>
</Style>
<Placemark>
<name>grid_cell</name>
<description>Probability: 9.770889487870619%</description>
<styleUrl>#style_5</styleUrl>
<Polygon><outerBoundaryIs><LinearRing><coordinates>
69.699999,22.45,0 69.799999,22.45,0 69.799999,22.55,0 69.699999,22.55,0 69.699999,22.45,0
</coordinates></LinearRing></outerBoundaryIs></Polygon>
</Placemark>
<Style id="style_6">
<LineStyle><color>ff000000</color><width>1</width></LineStyle>
<PolyStyle><color>ff3c8dfd</color></PolyStyle>
</Style>
<Placemark>
<name>grid_cell</name>
<description>Probability: 17.11590296495957%</description>
<styleUrl>#style_6</styleUrl>
<Polygon><outerBoundaryIs><LinearRing><coordinates>
69.799999,22.45,0 69.899999,22.45,0 69.899999,22.55,0 69.799999,22.55,0 69.799999,22.45,0
</coordinates></LinearRing></outerBoundaryIs></Polygon>
</Placemark>
<Style id="style_7">
<LineStyle><color>ff000000</color><width>1</width></LineStyle>
<PolyStyle><color>ff3c8dfd</color></PolyStyle>
</Style>
<Placemark>
<name>grid_cell</name>
<description>Probability: 19.070080862533693%</description>
<styleUrl>#style_7</styleUrl>
<Polygon><outerBoundaryIs><LinearRing><coordinates>
69.699999,22.55,0 69.799999,22.55,0 69.799999,22.65,0 69.699999,22.65,0 69.699999,22.55,0
</coordinates></LinearRing></outerBoundaryIs></Polygon>
</Placemark>
<Style id="style_8">
<LineStyle><color>ff000000</color><width>1</width></LineStyle>
<PolyStyle><color>ff1c1ae3</color></PolyStyle>
</Style>
<Placemark>
<name>grid_cell</name>
<description>Probability: 41.509433962264154%</description>
<styleUrl>#style_8</styleUrl>
<Polygon><outerBoundaryIs><LinearRing><coordinates>
69.799999,22.55,0 69.899999,22.55,0 69.899999,22.65,0 69.799999,22.65,0 69.799999,22.55,0
</coordinates></LinearRing></outerBoundaryIs></Polygon>
</Placemark>
<Style id="style_9">
<LineStyle><color>ff000000</color><width>1</width></LineStyle>
<PolyStyle><color>ff4cb2fe</color></PolyStyle>
</Style>
<Placemark>
<name>grid_cell</name>
<description>Probability: 5.45822102425876%</description>
<styleUrl>#style_9</styleUrl>
<Polygon><outerBoundaryIs><LinearRing><coordinates>
69.899999,22.55,0 69.999999,22.55,0 69.999999,22.65,0 69.899999,22.65,0 69.899999,22.55,0
</coordinates></LinearRing></outerBoundaryIs></Polygon>
</Placemark>
<Style id="style_10">
<LineStyle><color>ff000000</color><width>1</width></LineStyle>
<PolyStyle><color>ff76d9fe</color></PolyStyle>
</Style>
<Placemark>
<name>grid_cell</name>
<description>Probability: 3.167115902964959%</description>
<styleUrl>#style_10</styleUrl>
<Polygon><outerBoundaryIs><LinearRing><coordinates>
69.799999,22.65,0 69.899999,22.65,0 69.899999,22.75,0 69.799999,22.75,0 69.799999,22.65,0
</coordinates></LinearRing></outerBoundaryIs></Polygon>
</Placemark>
</Document></kml>