<?xml version="1.0" encoding="UTF-8"?>
<kml xmlns="http://www.opengis.net/kml/2.2">
<Document>
<Style id="style_0">
<LineStyle><color>ff0000ff</color><width>3</width></LineStyle>
<PolyStyle><color>00ffffff</color></PolyStyle>
</Style>
<Placemark>
<name>bounding_box</name>
<description>Probability: 27.3333%</description>
<styleUrl>#style_0</styleUrl>
<Polygon><outerBoundaryIs><LinearRing><coordinates>
69.599999,22.35,0 70.099999,22.35,0 70.099999,22.75,0 69.599999,22.75,0 69.599999,22.35,0
</coordinates></LinearRing></outerBoundaryIs></Polygon>
</Placemark>
<Style id="style_1">
<LineStyle><color>ff000000</color><width>1</width></LineStyle>
<PolyStyle><color>ffa0edff</color></PolyStyle>
</Style>
<Placemark>
<name>grid_cell</name>
<description>Probability: 0.2%</description>
<styleUrl>#style_1</styleUrl>
<Polygon><outerBoundaryIs><LinearRing><coordinates>
69.699999,22.35,0 69.799999,22.35,0 69.799999,22.45,0 69.699999,22.45,0 69.699999,22.35,0
</coordinates></LinearRing></outerBoundaryIs></Polygon>
</Placemark>
<Style id="style_2">
<LineStyle><color>ff000000</color><width>1</width></LineStyle>
<PolyStyle><color>ffa0edff</color></PolyStyle>
</Style>
<Placemark>
<name>grid_cell</name>
<description>Probability: 0.2%</description>
<styleUrl>#style_2</styleUrl>
<Polygon><outerBoundaryIs><LinearRing><coordinates>
69.799999,22.35,0 69.899999,22.35,0 69.899999,22.45,0 69.799999,22.45,0 69.799999,22.35,0
</coordinates></LinearRing></outerBoundaryIs></Polygon>
</Placemark>
<Style id="style_3">
<LineStyle><color>ff000000</color><width>1</width></LineStyle>
<PolyStyle><color>ff76d9fe</color></PolyStyle>
</Style>
<Placemark>
<name>grid_cell</name>
<description>Probability: 3.3333%</description>
<styleUrl>#style_3</styleUrl>
<Polygon><outerBoundaryIs><LinearRing><coordinates>
69.599999,22.45,0 69.699999,22.45,0 69.699999,22.55,0 69.599999,22.55,0 69.599999,22.45,0
</coordinates></LinearRing></outerBoundaryIs></Polygon>
</Placemark>
<Style id="style_4">
<LineStyle><color>ff000000</color><width>1</width></LineStyle>
<PolyStyle><color>ff3c8dfd</color></PolyStyle>
</Style>
<Placemark>
<name>grid_cell</name>
<description>Probability: 12.1333%</description>
<styleUrl>#style_4</styleUrl>
<Polygon><outerBoundaryIs><LinearRing><coordinates>
69.699999,22.45,0 69.799999,22.45,0 69.799999,22.55,0 69.699999,22.55,0 69.699999,22.45,0
</coordinates></LinearRing></outerBoundaryIs></Polygon>
</Placemark>
<Style id="style_5">
<LineStyle><color>ff000000</color><width>1</width></LineStyle>
<PolyStyle><color>ff2a4efc</color></PolyStyle>
</Style>
<Placemark>
<name>grid_cell</name>
<description>Probability: 22.4667%</description>
<styleUrl>#style_5</styleUrl>
<Polygon><outerBoundaryIs><LinearRing><coordinates>
69.799999,22.45,0 69.899999,22.45,0 69.899999,22.55,0 69.799999,22.55,0 69.799999,22.45,0
</coordinates></LinearRing></outerBoundaryIs></Polygon>
</Placemark>
<Style id="style_6">
<LineStyle><color>ff000000</color><width>1</width></LineStyle>
<PolyStyle><color>ff76d9fe</color></PolyStyle>
</Style>
<Placemark>
<name>grid_cell</name>
<description>Probability: 3.2%</description>
<styleUrl>#style_6</styleUrl>
<Polygon><outerBoundaryIs><LinearRing><coordinates>
69.899999,22.45,0 69.999999,22.45,0 69.999999,22.55,0 69.899999,22.55,0 69.899999,22.45,0
</coordinates></LinearRing></outerBoundaryIs></Polygon>
</Placemark>
<Style id="style_7">
<LineStyle><color>ff000000</color><width>1</width></LineStyle>
<PolyStyle><color>ff76d9fe</color></PolyStyle>
</Style>
<Placemark>
<name>grid_cell</name>
<description>Probability: 3.1333%</description>
<styleUrl>#style_7</styleUrl>
<Polygon><outerBoundaryIs><LinearRing><coordinates>
69.599999,22.55,0 69.699999,22.55,0 69.699999,22.65,0 69.599999,22.65,0 69.599999,22.55,0
</coordinates></LinearRing></outerBoundaryIs></Polygon>
</Placemark>
<Style id="style_8">
<LineStyle><color>ff000000</color><width>1</width></LineStyle>
<PolyStyle><color>ff3c8dfd</color></PolyStyle>
</Style>
<Placemark>
<name>grid_cell</name>
<description>Probability: 14.4%</description>
<styleUrl>#style_8</styleUrl>
<Polygon><outerBoundaryIs><LinearRing><coordinates>
69.699999,22.55,0 69.799999,22.55,0 69.799999,22.65,0 69.699999,22.65,0 69.699999,22.55,0
</coordinates></LinearRing></outerBoundaryIs></Polygon>
</Placemark>
<Style id="style_9">
<LineStyle><color>ff000000</color><width>1</width></LineStyle>
<PolyStyle><color>ff2a4efc</color></PolyStyle>
</Style>
<Placemark>
<name>grid_cell</name>
<description>Probability: 27.3333%</description>
<styleUrl>#style_9</styleUrl>
<Polygon><outerBoundaryIs><LinearRing><coordinates>
69.799999,22.55,0 69.899999,22.55,0 69.899999,22.65,0 69.799999,22.65,0 69.799999,22.55,0
</coordinates></LinearRing></outerBoundaryIs></Polygon>
</Placemark>
<Style id="style_10">
<LineStyle><color>ff000000</color><width>1</width></LineStyle>
<PolyStyle><color>ff4cb2fe</color></PolyStyle>
</Style>
<Placemark>
<name>grid_cell</name>
<description>Probability: 7.2667%</description>
<styleUrl>#style_10</styleUrl>
<Polygon><outerBoundaryIs><LinearRing><coordinates>
69.899999,22.55,0 69.999999,22.55,0 69.999999,22.65,0 69.899999,22.65,0 69.899999,22.55,0
</coordinates></LinearRing></outerBoundaryIs></Polygon>
</Placemark>
<Style id="style_11">
<LineStyle><color>ff000000</color><width>1</width></LineStyle>
<PolyStyle><color>ffa0edff</color></PolyStyle>
</Style>
<Placemark>
<name>grid_cell</name>
<description>Probability: 0.4%</description>
<styleUrl>#style_11</styleUrl>
<Polygon><outerBoundaryIs><LinearRing><coordinates>
69.999999,22.55,0 70.099999,22.55,0 70.099999,22.65,0 69.999999,22.65,0 69.999999,22.55,0
</coordinates></LinearRing></outerBoundaryIs></Polygon>
</Placemark>
<Style id="style_12">
<LineStyle><color>ff000000</color><width>1</width></LineStyle>
<PolyStyle><color>ffa0edff</color></PolyStyle>
</Style>
<Placemark>
<name>grid_cell</name>
<description>Probability: 0.2%</description>
<styleUrl>#style_12</styleUrl>
<Polygon><outerBoundaryIs><LinearRing><coordinates>
69.599999,22.65,0 69.699999,22.65,0 69.699999,22.75,0 69.599999,22.75,0 69.599999,22.65,0
</coordinates></LinearRing></outerBoundaryIs></Polygon>
</Placemark>
<Style id="style_13">
<LineStyle><color>ff000000</color><width>1</width></LineStyle>
<PolyStyle><color>ff76d9fe</color></PolyStyle>
</Style>
<Placemark>
<name>grid_cell</name>
<description>Probability: 2.1333%</description>
<styleUrl>#style_13</styleUrl>
<Polygon><outerBoundaryIs><LinearRing><coordinates>
69.699999,22.65,0 69.799999,22.65,0 69.799999,22.75,0 69.699999,22.75,0 69.699999,22.65,0
</coordinates></LinearRing></outerBoundaryIs></Polygon>
</Placemark>
<Style id="style_14">
<LineStyle><color>ff000000</color><width>1</width></LineStyle>
<PolyStyle><color>ff76d9fe</color></PolyStyle>
</Style>
<Placemark>
<name>grid_cell</name>
<description>Probability: 3.3333%</description>
<styleUrl>#style_14</styleUrl>
<Polygon><outerBoundaryIs><LinearRing><coordinates>
69.799999,22.65,0 69.899999,22.65,0 69.899999,22.75,0 69.799999,22.75,0 69.799999,22.65,0
</coordinates></LinearRing></outerBoundaryIs></Polygon>
</Placemark>
<Style id="style_15">
<LineStyle><color>ff000000</color><width>1</width></LineStyle>
<PolyStyle><color>ffa0edff</color></PolyStyle>
</Style>
<Placemark>
<name>grid_cell</name>
<description>Probability: 0.2667%</description>
<styleUrl>#style_15</styleUrl>
<Polygon><outerBoundaryIs><LinearRing><coordinates>
69.899999,22.65,0 69.999999,22.65,0 69.999999,22.75,0 69.899999,22.75,0 69.899999,22.65,0
</coordinates></LinearRing></outerBoundaryIs></Polygon>
</Placemark>
<Style id="style_16">
<LineStyle><color>ff000000</color><width>1</width></LineStyle>
<PolyStyle><color>ff76d9fe</color></PolyStyle>
</Style>
<Placemark>
<name>grid_cell</name>
<description>Probability: 3.3333333333333335%</description>
<styleUrl>#style_16</styleUrl>
<Polygon><outerBoundaryIs><LinearRing><coordinates>
69.599999,22.45,0 69.699999,22.45,0 69.699999,22.55,0 69.599999,22.55,0 69.599999,22.45,0
</coordinates></LinearRing></outerBoundaryIs></Polygon>
</Placemark>
<Style id="style_17">
<LineStyle><color>ff000000</color><width>1</width></LineStyle>
<PolyStyle><color>ff3c8dfd</color></PolyStyle>
</Style>
<Placemark>
<name>grid_cell</name>
<description>Probability: 12.133333333333333%</description>
<styleUrl>#style_17</styleUrl>
<Polygon><outerBoundaryIs><LinearRing><coordinates>
69.699999,22.45,0 69.799999,22.45,0 69.799999,22.55,0 69.699999,22.55,0 69.699999,22.45,0
</coordinates></LinearRing></outerBoundaryIs></Polygon>
</Placemark>
<Style id="style_18">
<LineStyle><color>ff000000</color><width>1</width></LineStyle>
<PolyStyle><color>ff2a4efc</color></PolyStyle>
</Style>
<Placemark>
<name>grid_cell</name>
<description>Probability: 22.466666666666665%</description>
<styleUrl>#style_18</styleUrl>
<Polygon><outerBoundaryIs><LinearRing><coordinates>
69.799999,22.45,0 69.899999,22.45,0 69.899999,22.55,0 69.799999,22.55,0 69.799999,22.45,0
</coordinates></LinearRing></outerBoundaryIs></Polygon>
</Placemark>
<Style id="style_19">
<LineStyle><color>ff000000</color><width>1</width></LineStyle>
<PolyStyle><color>ff76d9fe</color></PolyStyle>
</Style>
<Placemark>
<name>grid_cell</name>
<description>Probability: 3.2%</description>
<styleUrl>#style_19</styleUrl>
<Polygon><outerBoundaryIs><LinearRing><coordinates>
69.899999,22.45,0 69.999999,22.45,0 69.999999,22.55,0 69.899999,22.55,0 69.899999,22.45,0
</coordinates></LinearRing></outerBoundaryIs></Polygon>
</Placemark>
<Style id="style_20">
<LineStyle><color>ff000000</color><width>1</width></LineStyle>
<PolyStyle><color>ff76d9fe</color></PolyStyle>
</Style>
<Placemark>
<name>grid_cell</name>
<description>Probability: 3.1333333333333333%</description>
<styleUrl>#style_20</styleUrl>
<Polygon><outerBoundaryIs><LinearRing><coordinates>
69.599999,22.55,0 69.699999,22.55,0 69.699999,22.65,0 69.599999,22.65,0 69.599999,22.55,0
</coordinates></LinearRing></outerBoundaryIs></Polygon>
</Placemark>
<Style id="style_21">
<LineStyle><color>ff000000</color><width>1</width></LineStyle>
<PolyStyle><color>ff3c8dfd</color></PolyStyle>
</Style>
<Placemark>
<name>grid_cell</name>
<description>Probability: 14.399999999999999%</description>
<styleUrl>#style_21</styleUrl>
<Polygon><outerBoundaryIs><LinearRing><coordinates>
69.699999,22.55,0 69.799999,22.55,0 69.799999,22.65,0 69.699999,22.65,0 69.699999,22.55,0
</coordinates></LinearRing></outerBoundaryIs></Polygon>
</Placemark>
<Style id="style_22">
<LineStyle><color>ff000000</color><width>1</width></LineStyle>
<PolyStyle><color>ff2a4efc</color></PolyStyle>
</Style>
<Placemark>
<name>grid_cell</name>
<description>Probability: 27.333333333333332%</description>
<styleUrl>#style_22</styleUrl>
<Polygon><outerBoundaryIs><LinearRing><coordinates>
69.799999,22.55,0 69.899999,22.55,0 69.899999,22.65,0 69.799999,22.65,0 69.799999,22.55,0
</coordinates></LinearRing></outerBoundaryIs></Polygon>
</Placemark>
<Style id="style_23">
<LineStyle><color>ff000000</color><width>1</width></LineStyle>
<PolyStyle><color>ff4cb2fe</color></PolyStyle>
</Style>
<Placemark>
<name>grid_cell</name>
<description>Probability: 7.2666666666666675%</description>
<styleUrl>#style_23</styleUrl>
<Polygon><outerBoundaryIs><LinearRing><coordinates>
69.899999,22.55,0 69.999999,22.55,0 69.999999,22.65,0 69.899999,22.65,0 69.899999,22.55,0
</coordinates></LinearRing></outerBoundaryIs></Polygon>
</Placemark>
<Style id="style_24">
<LineStyle><color>ff000000</color><width>1</width></LineStyle>
<PolyStyle><color>ff76d9fe</color></PolyStyle>
</Style>
<Placemark>
<name>grid_cell</name>
<description>Probability: 2.1333333333333333%</description>
<styleUrl>#style_24</styleUrl>
<Polygon><outerBoundaryIs><LinearRing><coordinates>
69.699999,22.65,0 69.799999,22.65,0 69.799999,22.75,0 69.699999,22.75,0 69.699999,22.65,0
</coordinates></LinearRing></outerBoundaryIs></Polygon>
</Placemark>
<Style id="style_25">
<LineStyle><color>ff000000</color><width>1</width></LineStyle>
<PolyStyle><color>ff76d9fe</color></PolyStyle>
</Style>
<Placemark>
<name>grid_cell</name>
<description>Probability: 3.3333333333333335%</description>
<styleUrl>#style_25</styleUrl>
<Polygon><outerBoundaryIs><LinearRing><coordinates>
69.799999,22.65,0 69.899999,22.65,0 69.899999,22.75,0 69.799999,22.75,0 69.799999,22.65,0
</coordinates></LinearRing></outerBoundaryIs></Polygon>
</Placemark>
</Document></kml>